start=new Date('2022-12-23T00:00:00.000Z').valueOf();
sats=[{"TLE_LINE1":"1 51893U 22022AT  22356.89006128  .00005999  00000-0  39474-3 0  9998","INCLINATION":"53.2136","DECAY_DATE":null,"GP_ID":"221237576","MEAN_MOTION":"15.08833328","MEAN_ELEMENT_THEORY":"SGP4","MEAN_MOTION_DDOT":"0.0000000000000","EPHEMERIS_TYPE":"0","RA_OF_ASC_NODE":"224.0364","RCS_SIZE":"LARGE","CENTER_NAME":"EARTH","PERIAPSIS":"538.178","REV_AT_EPOCH":"4625","LAUNCH_DATE":"2022-03-03","NORAD_CAT_ID":"51893","MEAN_MOTION_DOT":"0.00005999","SEMIMAJOR_AXIS":"6917.901","FILE":"3719655","COUNTRY_CODE":"US","ECCENTRICITY":"0.00022950","ARG_OF_PERICENTER":"35.1897","APOAPSIS":"541.353","TLE_LINE2":"2 51893  53.2136 224.0364 0002295  35.1897 324.9247 15.08833328 46259","PERIOD":"95.438","SITE":"AFETR","OBJECT_TYPE":"PAYLOAD","BSTAR":"0.00039474000000","OBJECT_ID":"2022-022AT","ELEMENT_SET_NO":"999","REF_FRAME":"TEME","CLASSIFICATION_TYPE":"U","OBJECT_NAME":"STARLINK-3579","TIME_SYSTEM":"UTC","MEAN_ANOMALY":"324.9247","EPOCH":"2022-12-22T21:21:41.294592"},{"REV_AT_EPOCH":"4625","LAUNCH_DATE":"2022-03-03","MEAN_MOTION_DOT":"0.00002331","NORAD_CAT_ID":"51894","FILE":"3719655","SEMIMAJOR_AXIS":"6917.858","ARG_OF_PERICENTER":"25.9229","APOAPSIS":"541.668","COUNTRY_CODE":"US","ECCENTRICITY":"0.00028110","MEAN_MOTION_DDOT":"0.0000000000000","TLE_LINE1":"1 51894U 22022AU  22356.89372276  .00002331  00000-0  16450-3 0  9995","INCLINATION":"53.2156","DECAY_DATE":null,"GP_ID":"221237827","MEAN_MOTION":"15.08847164","MEAN_ELEMENT_THEORY":"SGP4","RA_OF_ASC_NODE":"224.0175","RCS_SIZE":"LARGE","PERIAPSIS":"537.779","CENTER_NAME":"EARTH","EPHEMERIS_TYPE":"0","OBJECT_ID":"2022-022AU","REF_FRAME":"TEME","ELEMENT_SET_NO":"999","BSTAR":"0.00016450000000","EPOCH":"2022-12-22T21:26:57.646464","TIME_SYSTEM":"UTC","CLASSIFICATION_TYPE":"U","OBJECT_NAME":"STARLINK-3595","MEAN_ANOMALY":"334.1904","TLE_LINE2":"2 51894  53.2156 224.0175 0002811  25.9229 334.1904 15.08847164 46258","PERIOD":"95.437","OBJECT_TYPE":"PAYLOAD","SITE":"AFETR"},{"EPHEMERIS_TYPE":"0","RCS_SIZE":"LARGE","CENTER_NAME":"EARTH","PERIAPSIS":"537.889","RA_OF_ASC_NODE":"224.0492","INCLINATION":"53.2142","GP_ID":"221236576","MEAN_MOTION":"15.08831531","DECAY_DATE":null,"MEAN_ELEMENT_THEORY":"SGP4","TLE_LINE1":"1 51895U 22022AV  22356.88638050  .00001995  00000-0  14343-3 0  9994","MEAN_MOTION_DDOT":"0.0000000000000","ECCENTRICITY":"0.00027210","COUNTRY_CODE":"US","ARG_OF_PERICENTER":"29.8231","APOAPSIS":"541.654","NORAD_CAT_ID":"51895","MEAN_MOTION_DOT":"0.00001995","FILE":"3719655","SEMIMAJOR_AXIS":"6917.906","REV_AT_EPOCH":"4619","LAUNCH_DATE":"2022-03-03","SITE":"AFETR","OBJECT_TYPE":"PAYLOAD","PERIOD":"95.438","TLE_LINE2":"2 51895  53.2142 224.0492 0002721  29.8231 330.2916 15.08831531 46196","MEAN_ANOMALY":"330.2916","OBJECT_NAME":"STARLINK-3594","CLASSIFICATION_TYPE":"U","TIME_SYSTEM":"UTC","EPOCH":"2022-12-22T21:16:23.275200","BSTAR":"0.00014343000000","ELEMENT_SET_NO":"999","REF_FRAME":"TEME","OBJECT_ID":"2022-022AV"},{"TLE_LINE2":"2 51896  53.2182 223.7437 0004010  43.4666 316.6641 15.08612954 46259","PERIOD":"95.452","OBJECT_TYPE":"PAYLOAD","SITE":"AFETR","OBJECT_ID":"2022-022AW","REF_FRAME":"TEME","ELEMENT_SET_NO":"999","BSTAR":"0.00323030000000","EPOCH":"2022-12-22T22:53:14.641152","TIME_SYSTEM":"UTC","CLASSIFICATION_TYPE":"U","OBJECT_NAME":"STARLINK-3593","MEAN_ANOMALY":"316.6641","MEAN_MOTION_DDOT":"0.0000000000000","TLE_LINE1":"1 51896U 22022AW  22356.95364168  .00051182  00000-0  32303-2 0  9997","GP_ID":"221211447","MEAN_MOTION":"15.08612954","DECAY_DATE":null,"MEAN_ELEMENT_THEORY":"SGP4","INCLINATION":"53.2182","RA_OF_ASC_NODE":"223.7437","PERIAPSIS":"537.665","CENTER_NAME":"EARTH","RCS_SIZE":"LARGE","EPHEMERIS_TYPE":"0","LAUNCH_DATE":"2022-03-03","REV_AT_EPOCH":"4625","SEMIMAJOR_AXIS":"6918.574","FILE":"3719584","MEAN_MOTION_DOT":"0.00051182","NORAD_CAT_ID":"51896","APOAPSIS":"543.214","ARG_OF_PERICENTER":"43.4666","COUNTRY_CODE":"US","ECCENTRICITY":"0.00040100"},{"CLASSIFICATION_TYPE":"U","OBJECT_NAME":"STARLINK-3598","TIME_SYSTEM":"UTC","MEAN_ANOMALY":"320.9805","EPOCH":"2022-12-22T22:46:28.432416","BSTAR":"0.00007456000000","OBJECT_ID":"2022-022AX","REF_FRAME":"TEME","ELEMENT_SET_NO":"999","SITE":"AFETR","OBJECT_TYPE":"PAYLOAD","TLE_LINE2":"2 51897  53.2149 223.7699 0002497  39.1368 320.9805 15.08833981 46201","PERIOD":"95.438","COUNTRY_CODE":"US","ECCENTRICITY":"0.00024970","APOAPSIS":"541.491","ARG_OF_PERICENTER":"39.1368","LAUNCH_DATE":"2022-03-03","REV_AT_EPOCH":"4620","FILE":"3719640","SEMIMAJOR_AXIS":"6917.899","MEAN_MOTION_DOT":"0.00000898","NORAD_CAT_ID":"51897","EPHEMERIS_TYPE":"0","RA_OF_ASC_NODE":"223.7699","PERIAPSIS":"538.036","CENTER_NAME":"EARTH","RCS_SIZE":"LARGE","TLE_LINE1":"1 51897U 22022AX  22356.94894019  .00000898  00000-0  74560-4 0  9991","DECAY_DATE":null,"GP_ID":"221213128","MEAN_MOTION":"15.08833981","MEAN_ELEMENT_THEORY":"SGP4","INCLINATION":"53.2149","MEAN_MOTION_DDOT":"0.0000000000000"},{"ECCENTRICITY":"0.00022840","COUNTRY_CODE":"US","APOAPSIS":"541.309","ARG_OF_PERICENTER":"42.0833","SEMIMAJOR_AXIS":"6917.864","FILE":"3719655","NORAD_CAT_ID":"51898","MEAN_MOTION_DOT":"0.00002565","LAUNCH_DATE":"2022-03-03","REV_AT_EPOCH":"4624","EPHEMERIS_TYPE":"0","CENTER_NAME":"EARTH","PERIAPSIS":"538.149","RCS_SIZE":"LARGE","RA_OF_ASC_NODE":"224.0820","DECAY_DATE":null,"GP_ID":"221237328","MEAN_MOTION":"15.08845506","MEAN_ELEMENT_THEORY":"SGP4","INCLINATION":"53.2142","TLE_LINE1":"1 51898U 22022AY  22356.87901502  .00002565  00000-0  17920-3 0  9999","MEAN_MOTION_DDOT":"0.0000000000000","MEAN_ANOMALY":"318.0335","CLASSIFICATION_TYPE":"U","OBJECT_NAME":"STARLINK-3597","TIME_SYSTEM":"UTC","EPOCH":"2022-12-22T21:05:46.897728","BSTAR":"0.00017920000000","ELEMENT_SET_NO":"999","REF_FRAME":"TEME","OBJECT_ID":"2022-022AY","SITE":"AFETR","OBJECT_TYPE":"PAYLOAD","PERIOD":"95.437","TLE_LINE2":"2 51898  53.2142 224.0820 0002284  42.0833 318.0335 15.08845506 46245"},{"SITE":"AFETR","OBJECT_TYPE":"PAYLOAD","PERIOD":"95.438","TLE_LINE2":"2 51956  53.2170 254.2737 0002809  24.8439 335.2688 15.08835180 44131","MEAN_ANOMALY":"335.2688","CLASSIFICATION_TYPE":"U","TIME_SYSTEM":"UTC","OBJECT_NAME":"STARLINK-3700","EPOCH":"2022-12-22T20:03:30.420864","BSTAR":"0.00006433200000","ELEMENT_SET_NO":"999","REF_FRAME":"TEME","OBJECT_ID":"2022-025A","EPHEMERIS_TYPE":"0","PERIAPSIS":"537.817","CENTER_NAME":"EARTH","RCS_SIZE":"LARGE","RA_OF_ASC_NODE":"254.2737","GP_ID":"221237080","MEAN_ELEMENT_THEORY":"SGP4","DECAY_DATE":null,"MEAN_MOTION":"15.08835180","INCLINATION":"53.2170","TLE_LINE1":"1 51956U 22025A   22356.83576876  .00000735  00000-0  64332-4 0  9992","MEAN_MOTION_DDOT":"0.0000000000000","ECCENTRICITY":"0.00028090","COUNTRY_CODE":"US","APOAPSIS":"541.703","ARG_OF_PERICENTER":"24.8439","SEMIMAJOR_AXIS":"6917.895","FILE":"3719655","MEAN_MOTION_DOT":"0.00000735","NORAD_CAT_ID":"51956","LAUNCH_DATE":"2022-03-09","REV_AT_EPOCH":"4413"},{"OBJECT_TYPE":"PAYLOAD","SITE":"AFETR","TLE_LINE2":"2 51957  53.2154 253.7604 0001490  95.2268 264.8894 15.08837761 45266","PERIOD":"95.438","EPOCH":"2022-12-22T22:47:47.241312","OBJECT_NAME":"STARLINK-3694","CLASSIFICATION_TYPE":"U","TIME_SYSTEM":"UTC","MEAN_ANOMALY":"264.8894","OBJECT_ID":"2022-025B","ELEMENT_SET_NO":"999","REF_FRAME":"TEME","BSTAR":"-0.00010853000000","RA_OF_ASC_NODE":"253.7604","PERIAPSIS":"538.721","CENTER_NAME":"EARTH","RCS_SIZE":"LARGE","EPHEMERIS_TYPE":"0","MEAN_MOTION_DDOT":"0.0000000000000","TLE_LINE1":"1 51957U 22025B   22356.94985233 -.00002015  00000-0 -10853-3 0  9999","MEAN_ELEMENT_THEORY":"SGP4","GP_ID":"221212752","DECAY_DATE":null,"MEAN_MOTION":"15.08837761","INCLINATION":"53.2154","APOAPSIS":"540.783","ARG_OF_PERICENTER":"95.2268","COUNTRY_CODE":"US","ECCENTRICITY":"0.00014900","LAUNCH_DATE":"2022-03-09","REV_AT_EPOCH":"4526","FILE":"3719640","SEMIMAJOR_AXIS":"6917.887","MEAN_MOTION_DOT":"-0.00002015","NORAD_CAT_ID":"51957"},{"OBJECT_NAME":"STARLINK-3692","CLASSIFICATION_TYPE":"U","TIME_SYSTEM":"UTC","MEAN_ANOMALY":"327.7531","EPOCH":"2022-12-22T10:25:53.384160","BSTAR":"0.00016948000000","OBJECT_ID":"2022-025C","ELEMENT_SET_NO":"999","REF_FRAME":"TEME","SITE":"AFETR","OBJECT_TYPE":"PAYLOAD","TLE_LINE2":"2 51958  53.2157 256.0751 0002492  32.3613 327.7531 15.08840562 44076","PERIOD":"95.438","COUNTRY_CODE":"US","ECCENTRICITY":"0.00024920","APOAPSIS":"541.468","ARG_OF_PERICENTER":"32.3613","LAUNCH_DATE":"2022-03-09","REV_AT_EPOCH":"4407","FILE":"3719197","SEMIMAJOR_AXIS":"6917.879","MEAN_MOTION_DOT":"0.00002410","NORAD_CAT_ID":"51958","EPHEMERIS_TYPE":"0","RA_OF_ASC_NODE":"256.0751","CENTER_NAME":"EARTH","PERIAPSIS":"538.020","RCS_SIZE":"LARGE","TLE_LINE1":"1 51958U 22025C   22356.43464565  .00002410  00000-0  16948-3 0  9992","GP_ID":"221201197","DECAY_DATE":null,"MEAN_MOTION":"15.08840562","MEAN_ELEMENT_THEORY":"SGP4","INCLINATION":"53.2157","MEAN_MOTION_DDOT":"0.0000000000000"},{"RCS_SIZE":"LARGE","CENTER_NAME":"EARTH","PERIAPSIS":"537.788","RA_OF_ASC_NODE":"253.7328","EPHEMERIS_TYPE":"0","MEAN_MOTION_DDOT":"0.0000000000000","INCLINATION":"53.2163","DECAY_DATE":null,"GP_ID":"221213114","MEAN_MOTION":"15.08835964","MEAN_ELEMENT_THEORY":"SGP4","TLE_LINE1":"1 51959U 22025D   22356.95353795  .00006861  00000-0  44881-3 0  9993","ARG_OF_PERICENTER":"24.0632","APOAPSIS":"541.728","ECCENTRICITY":"0.00028480","COUNTRY_CODE":"US","MEAN_MOTION_DOT":"0.00006861","NORAD_CAT_ID":"51959","FILE":"3719640","SEMIMAJOR_AXIS":"6917.893","REV_AT_EPOCH":"4524","LAUNCH_DATE":"2022-03-09","OBJECT_TYPE":"PAYLOAD","SITE":"AFETR","PERIOD":"95.438","TLE_LINE2":"2 51959  53.2163 253.7328 0002848  24.0632 336.0493 15.08835964 45242","EPOCH":"2022-12-22T22:53:05.678880","MEAN_ANOMALY":"336.0493","TIME_SYSTEM":"UTC","CLASSIFICATION_TYPE":"U","OBJECT_NAME":"STARLINK-3704","ELEMENT_SET_NO":"999","REF_FRAME":"TEME","OBJECT_ID":"2022-025D","BSTAR":"0.00044881000000"}];
